IRIDIUM 39              
1 25042U 97069D   25194.71171189  .00000402  00000+0  99939-4 0  9998
2 25042  86.3923 199.7635 0016455 212.1701 147.8501 14.49241242452809
IRIDIUM 38              
1 25043U 97069E   25194.81768561  .00000268  00000+0  81999-4 0  9993
2 25043  86.3948 221.9535 0003295  55.0572 305.0935 14.38132899449789
IRIDIUM 42              
1 25077U 97077A   25194.85659481  .00000259  00000+0  81770-4 0  9990
2 25077  86.3949 228.1389 0002747  76.8575 283.2929 14.36367020445025
IRIDIUM 44              
1 25078U 97077B   25194.73907488  .00000252  00000+0  73504-4 0  9990
2 25078  86.3959 210.0478 0001206  34.9030 325.2248 14.40256336447526
IRIDIUM 45              
1 25104U 97082A   25194.80301408  .00012137  00000+0  42976-3 0  9997
2 25104  86.3562  34.9567 0113356 231.1473 127.9615 15.22980399456091
IRIDIUM 24              
1 25105U 97082B   25194.88615145  .00000370  00000+0  10640-3 0  9991
2 25105  86.3880  68.9739 0011386   1.0114 359.1107 14.42118690447069
IRIDIUM 51              
1 25262U 98018A   25194.86088050  .00030913  00000+0  65287-3 0  9995
2 25262  86.3803  42.6071 0085438 146.2449 214.4288 15.41108354451130
IRIDIUM 57              
1 25273U 98019B   25194.58328332  .00000261  00000+0  83211-4 0  9998
2 25273  86.3989 134.2071 0002277  83.4926 276.6530 14.35906745428571
